{
  "type": "FeatureCollection",
  "features": [
    {
      "type": "Feature",
      "properties": {
        "norad_id": 28051,
        "name": "IRS-P6 (RESOURCESAT-1)",
        "group": "resource",
        "lat": -14.076428087694493,
        "lon": -162.63745521538658,
        "alt_km": 731.363781928023,
        "timestamp": "2025-12-04T15:47:53.752453+00:00",
        "meta_object_name": "IRS-P6 (RESOURCESAT-1)",
        "meta_object_id": "2003-046A",
        "meta_epoch": "2025-12-04T07:10:31.128096",
        "meta_mean_motion": 14.36068884,
        "meta_eccentricity": 0.00637048,
        "meta_inclination": 98.219,
        "meta_ra_of_asc_node": 19.0968,
        "meta_arg_of_pericenter": 206.0993,
        "meta_mean_anomaly": 291.7501,
        "meta_ephemeris_type": 0,
        "meta_classification_type": "U",
        "meta_norad_cat_id": 28051,
        "meta_element_set_no": 999,
        "meta_rev_at_epoch": 15255,
        "meta_bstar": 0.00016848975,
        "meta_mean_motion_dot": 4.6e-06,
        "meta_mean_motion_ddot": 0,
        "tle_line1": "1 28051U 03046A   25338.29897139  .00000460  00000+0  16849-3 0  9998",
        "tle_line2": "2 28051  98.2190  19.0968 0063704 206.0993 291.7501 14.36068884152550"
      },
      "geometry": {
        "type": "Point",
        "coordinates": [
          -162.63745521538658,
          -14.076428087694493
        ]
      }
    },
    {
      "type": "Feature",
      "properties": {
        "norad_id": 28220,
        "name": "SHIYAN-1 (SY-1)",
        "group": "resource",
        "lat": -78.97785681147963,
        "lon": 85.15885430989047,
        "alt_km": 488.75017144130106,
        "timestamp": "2025-12-04T15:47:53.752464+00:00",
        "meta_object_name": "SHIYAN-1 (SY-1)",
        "meta_object_id": "2004-012A",
        "meta_epoch": "2025-12-04T03:34:57.718560",
        "meta_mean_motion": 15.277959,
        "meta_eccentricity": 0.00062597,
        "meta_inclination": 97.8954,
        "meta_ra_of_asc_node": 39.1833,
        "meta_arg_of_pericenter": 357.2045,
        "meta_mean_anomaly": 2.9157,
        "meta_ephemeris_type": 0,
        "meta_classification_type": "U",
        "meta_norad_cat_id": 28220,
        "meta_element_set_no": 999,
        "meta_rev_at_epoch": 18125,
        "meta_bstar": 0.00092340277,
        "meta_mean_motion_dot": 0.00025059,
        "meta_mean_motion_ddot": 0,
        "tle_line1": "1 28220U 04012A   25338.14927915  .00025059  00000+0  92340-3 0  9991",
        "tle_line2": "2 28220  97.8954  39.1833 0006259 357.2045   2.9157 15.27795900181259"
      },
      "geometry": {
        "type": "Point",
        "coordinates": [
          85.15885430989047,
          -78.97785681147963
        ]
      }
    },
    {
      "type": "Feature",
      "properties": {
        "norad_id": 28376,
        "name": "AURA",
        "group": "resource",
        "lat": 77.92756766110548,
        "lon": 152.00311459302984,
        "alt_km": 682.1373968525331,
        "timestamp": "2025-12-04T15:47:53.752475+00:00",
        "meta_object_name": "AURA",
        "meta_object_id": "2004-026A",
        "meta_epoch": "2025-12-04T07:07:44.594688",
        "meta_mean_motion": 14.60916284,
        "meta_eccentricity": 0.00010953,
        "meta_inclination": 98.3172,
        "meta_ra_of_asc_node": 288.4852,
        "meta_arg_of_pericenter": 91.807,
        "meta_mean_anomaly": 268.3256,
        "meta_ephemeris_type": 0,
        "meta_classification_type": "U",
        "meta_norad_cat_id": 28376,
        "meta_element_set_no": 999,
        "meta_rev_at_epoch": 13775,
        "meta_bstar": 0.00045745482,
        "meta_mean_motion_dot": 2.192e-05,
        "meta_mean_motion_ddot": 0,
        "tle_line1": "1 28376U 04026A   25338.29704392  .00002192  00000+0  45745-3 0  9996",
        "tle_line2": "2 28376  98.3172 288.4852 0001095  91.8070 268.3256 14.60916284137751"
      },
      "geometry": {
        "type": "Point",
        "coordinates": [
          152.00311459302984,
          77.92756766110548
        ]
      }
    },
    {
      "type": "Feature",
      "properties": {
        "norad_id": 28649,
        "name": "IRS-P5 (CARTOSAT-1)",
        "group": "resource",
        "lat": 3.2201641182423746,
        "lon": -174.14232840217585,
        "alt_km": 600.1377444162208,
        "timestamp": "2025-12-04T15:47:53.752486+00:00",
        "meta_object_name": "IRS-P5 (CARTOSAT-1)",
        "meta_object_id": "2005-017A",
        "meta_epoch": "2025-12-04T00:30:22.414464",
        "meta_mean_motion": 14.90357768,
        "meta_eccentricity": 0.00017393,
        "meta_inclination": 97.5499,
        "meta_ra_of_asc_node": 4.8212,
        "meta_arg_of_pericenter": 52.4493,
        "meta_mean_anomaly": 307.6884,
        "meta_ephemeris_type": 0,
        "meta_classification_type": "U",
        "meta_norad_cat_id": 28649,
        "meta_element_set_no": 999,
        "meta_rev_at_epoch": 11474,
        "meta_bstar": 0.00040691308,
        "meta_mean_motion_dot": 3.907e-05,
        "meta_mean_motion_ddot": 0,
        "tle_line1": "1 28649U 05017A   25338.02109276  .00003907  00000+0  40691-3 0  9991",
        "tle_line2": "2 28649  97.5499   4.8212 0001739  52.4493 307.6884 14.90357768114741"
      },
      "geometry": {
        "type": "Point",
        "coordinates": [
          -174.14232840217585,
          3.2201641182423746
        ]
      }
    },
    {
      "type": "Feature",
      "properties": {
        "norad_id": 28893,
        "name": "SINAH 1",
        "group": "resource",
        "lat": -37.10493198423642,
        "lon": -79.11460267805347,
        "alt_km": 680.9802046612003,
        "timestamp": "2025-12-04T15:47:53.752497+00:00",
        "meta_object_name": "SINAH 1",
        "meta_object_id": "2005-043D",
        "meta_epoch": "2025-12-04T06:36:24.948864",
        "meta_mean_motion": 14.63947914,
        "meta_eccentricity": 0.00148757,
        "meta_inclination": 98.26,
        "meta_ra_of_asc_node": 106.8102,
        "meta_arg_of_pericenter": 162.3881,
        "meta_mean_anomaly": 197.784,
        "meta_ephemeris_type": 0,
        "meta_classification_type": "U",
        "meta_norad_cat_id": 28893,
        "meta_element_set_no": 999,
        "meta_rev_at_epoch": 7200,
        "meta_bstar": 0.00020345173,
        "meta_mean_motion_dot": 1.017e-05,
        "meta_mean_motion_ddot": 0,
        "tle_line1": "1 28893U 05043D   25338.27528876  .00001017  00000+0  20345-3 0  9993",
        "tle_line2": "2 28893  98.2600 106.8102 0014875 162.3881 197.7840 14.63947914 72002"
      },
      "geometry": {
        "type": "Point",
        "coordinates": [
          -79.11460267805347,
          -37.10493198423642
        ]
      }
    },
    {
      "type": "Feature",
      "properties": {
        "norad_id": 29079,
        "name": "EROS B",
        "group": "resource",
        "lat": 56.420261936531105,
        "lon": -73.92379086825584,
        "alt_km": 367.9882164419514,
        "timestamp": "2025-12-04T15:47:53.752509+00:00",
        "meta_object_name": "EROS B",
        "meta_object_id": "2006-014A",
        "meta_epoch": "2025-12-04T07:36:10.626624",
        "meta_mean_motion": 15.65036149,
        "meta_eccentricity": 0.00020772,
        "meta_inclination": 97.3492,
        "meta_ra_of_asc_node": 94.5096,
        "meta_arg_of_pericenter": 240.077,
        "meta_mean_anomaly": 120.0283,
        "meta_ephemeris_type": 0,
        "meta_classification_type": "U",
        "meta_norad_cat_id": 29079,
        "meta_element_set_no": 999,
        "meta_rev_at_epoch": 8948,
        "meta_bstar": 0.0023603134,
        "meta_mean_motion_dot": 0.00238017,
        "meta_mean_motion_ddot": 0,
        "tle_line1": "1 29079U 06014A   25338.31678966  .00238017  00000+0  23603-2 0  9991",
        "tle_line2": "2 29079  97.3492  94.5096 0002077 240.0770 120.0283 15.65036149 89487"
      },
      "geometry": {
        "type": "Point",
        "coordinates": [
          -73.92379086825584,
          56.420261936531105
        ]
      }
    },
    {
      "type": "Feature",
      "properties": {
        "norad_id": 29228,
        "name": "RESURS-DK 1",
        "group": "resource",
        "lat": 12.598126917623162,
        "lon": -61.96474812875421,
        "alt_km": 531.1736071244468,
        "timestamp": "2025-12-04T15:47:53.752520+00:00",
        "meta_object_name": "RESURS-DK 1",
        "meta_object_id": "2006-021A",
        "meta_epoch": "2025-12-03T20:00:42.744384",
        "meta_mean_motion": 15.12079711,
        "meta_eccentricity": 0.00078238,
        "meta_inclination": 69.9329,
        "meta_ra_of_asc_node": 124.8507,
        "meta_arg_of_pericenter": 265.1506,
        "meta_mean_anomaly": 94.8767,
        "meta_ephemeris_type": 0,
        "meta_classification_type": "U",
        "meta_norad_cat_id": 29228,
        "meta_element_set_no": 999,
        "meta_rev_at_epoch": 7303,
        "meta_bstar": 0.00033225758,
        "meta_mean_motion_dot": 5.63e-05,
        "meta_mean_motion_ddot": 0,
        "tle_line1": "1 29228U 06021A   25337.83382806  .00005630  00000+0  33226-3 0  9992",
        "tle_line2": "2 29228  69.9329 124.8507 0007823 265.1506  94.8767 15.12079711 73033"
      },
      "geometry": {
        "type": "Point",
        "coordinates": [
          -61.96474812875421,
          12.598126917623162
        ]
      }
    }
  ]
}